[{"OBJECT_NAME":"STARLINK-3830","OBJECT_ID":"2022-045AJ","EPOCH":"2026-03-09T16:00:16.072416","MEAN_MOTION":15.08833649,"ECCENTRICITY":0.00014084,"INCLINATION":53.2158,"RA_OF_ASC_NODE":199.2227,"ARG_OF_PERICENTER":77.1127,"MEAN_ANOMALY":283.0022,"EPHEMERIS_TYPE":0,"CLASSIFICATION_TYPE":"U","NORAD_CAT_ID":52363,"ELEMENT_SET_NO":999,"REV_AT_EPOCH":21578,"BSTAR":0.00013199122,"MEAN_MOTION_DOT":1.813e-5,"MEAN_MOTION_DDOT":0},{"OBJECT_NAME":"OBJECT C","OBJECT_ID":"2025-108C","EPOCH":"2026-03-09T22:37:32.676384","MEAN_MOTION":15.13945167,"ECCENTRICITY":0.00134886,"INCLINATION":97.4753,"RA_OF_ASC_NODE":145.0046,"ARG_OF_PERICENTER":355.6312,"MEAN_ANOMALY":4.48,"EPHEMERIS_TYPE":0,"CLASSIFICATION_TYPE":"U","NORAD_CAT_ID":64089,"ELEMENT_SET_NO":999,"REV_AT_EPOCH":4425,"BSTAR":0.00040295487,"MEAN_MOTION_DOT":7.256e-5,"MEAN_MOTION_DDOT":0}]
